PROBA-1                 
1 26958U 01049B   26171.25637345  .00001011  00000+0  68844-4 0  9992
2 26958  97.9594 179.8966 0056443 111.8245 248.8999 15.07500439344087
CUTE-1 (CO-55)          
1 27844U 03031E   26170.56610412  .00000202  00000+0  10624-3 0  9992
2 27844  98.6736 179.0951 0009689 171.1603 188.9749 14.24336935192018
CUBESAT XI-IV (CO-57)   
1 27848U 03031J   26170.97745452  .00000169  00000+0  93103-4 0  9990
2 27848  98.6765 179.2116 0009219 188.6492 171.4529 14.23622052191779
APRIZESAT 4             
1 35684U 09041D   26170.75201161  .00000445  00000+0  59830-4 0  9990
2 35684  98.1412 246.1237 0042243 314.5541  45.2225 14.83882094911745
APRIZESAT 3             
1 35686U 09041F   26171.10833552  .00001567  00000+0  13929-3 0  9991
2 35686  98.2069 324.4719 0062800  58.3135 302.4187 14.96250603916811
PROBA-2                 
1 36037U 09059B   26170.99149504  .00000114  00000+0  37192-4 0  9990
2 36037  98.2451 354.3053 0011936 272.4203  87.5628 14.54863384881934
APRIZESAT 5             
1 37792U 11044E   26170.77714931  .00000837  00000+0  11290-3 0  9996
2 37792  98.2452 103.8909 0052138 355.9993   4.0794 14.81080842799175
APRIZESAT 6             
1 37793U 11044F   26170.71549074  .00000575  00000+0  88315-4 0  9997
2 37793  98.2361  81.2667 0044461  78.1980 312.2795 14.76919078797523
PROBA-V                 
1 39159U 13021A   26171.21168463  .00000049  00000+0  39560-4 0  9991
2 39159  98.3584 149.6690 0005243 116.3951 243.7767 14.23597478681541
APRIZESAT 7             
1 39416U 13066A   26171.30696573  .00000703  00000+0  75024-4 0  9996
2 39416  97.7709 124.4820 0035242 198.6791 161.3137 14.91569426681691
APRIZESAT 8             
1 39425U 13066K   26171.10093910  .00000681  00000+0  79822-4 0  9995
2 39425  97.8221 118.5281 0044342 276.6414  82.9756 14.87657155680108
BUGSAT-1 (TITA)         
1 40014U 14033E   26171.27131412  .00006466  00000+0  34086-3 0  9993
2 40014  98.0424 264.0001 0028337 168.1465 192.0439 15.15615533656308
SAUDISAT 4              
1 40016U 14033G   26171.29744268  .00000475  00000+0  69165-4 0  9997
2 40016  97.7587 317.3244 0046059  64.1667 296.4285 14.79548091646532
APRIZESAT 9             
1 40018U 14033J   26170.92257645  .00000549  00000+0  88075-4 0  9999
2 40018  97.9066 304.0543 0065900 190.3382 169.6476 14.74217721643960
APRIZESAT 10            
1 40019U 14033K   26170.91577352  .00000344  00000+0  62053-4 0  9990
2 40019  97.9654 297.8143 0077412 264.9715  94.2652 14.70884475642654
TECHDEMOSAT-1 (TDS-1)   
1 40076U 14037H   26170.93560842  .00007129  00000+0  40428-3 0  9994
2 40076  98.3818 163.4207 0004661 253.6503 106.4213 15.13326666648644
TECHNOSAT               
1 42829U 17042E   26171.17475808  .00002722  00000+0  19541-3 0  9991
2 42829  97.4297 328.7186 0019182  84.8967 275.4449 15.04978314487155
FLYING LAPTOP           
1 42831U 17042G   26171.31841877  .00002502  00000+0  19893-3 0  9999
2 42831  97.4705 326.7303 0019726 111.7060 248.6267 15.01161888486920
HAWK-A                  
1 43765U 18099H   26170.71081534  .00004986  00000+0  20173-3 0  9999
2 43765  97.3908 222.9140 0033056 276.5231  83.2244 15.24666904413482
HAWK-B                  
1 43794U 18099AN  26171.12961070  .00004571  00000+0  19590-3 0  9990
2 43794  97.3956 222.7361 0030342 294.0424  65.7638 15.22851797413480
HAWK-C                  
1 43799U 18099AT  26171.14001602  .00006074  00000+0  21940-3 0  9995
2 43799  97.3884 224.2644 0038726 274.8497  84.8321 15.28136665414361
SALSAT                  
1 46495U 20068K   26170.95810387  .00006379  00000+0  22355-3 0  9995
2 46495  97.8854 174.1914 0007892 296.5001  63.5428 15.29832652315782
HAWK-2C                 
1 47502U 21006CT  26171.15159575  .00005134  00000+0  15492-3 0  9998
2 47502  97.2275 215.4025 0007027 175.4845 184.6464 15.34692888299952
HAWK-2A                 
1 47505U 21006CW  26171.15405930  .00005164  00000+0  15576-3 0  9996
2 47505  97.2316 216.0844 0006465 178.2900 181.8366 15.34707718299954
HAWK-2B                 
1 47508U 21006CZ  26171.08422452  .00006034  00000+0  18106-3 0  9998
2 47508  97.2187 214.3431 0007051 176.8619 183.2670 15.34799117299946
HAWK-3B                 
1 48931U 21059BE  26171.00176352  .00041973  00000+0  35286-3 0  9993
2 48931  97.6656   7.9758 0003201 314.8431  45.2570 15.69777918278293
HAWK-3C                 
1 48948U 21059BX  26170.49147182  .00044376  00000+0  37360-3 0  9997
2 48948  97.6775  13.1066 0003519 320.4197  39.6807 15.69730324278210
HAWK-3A                 
1 48957U 21059CG  26170.49131177  .00039274  00000+0  33085-3 0  9995
2 48957  97.6723  10.3100 0003418 322.4094  37.6928 15.69740181278211
HAWK-5C                 
1 52754U 22057Y   26170.94655690  .00015773  00000+0  26861-3 0  9997
2 52754  97.6610 330.7911 0004835  75.0756 285.1030 15.51475571226772
HAWK-5B                 
1 52756U 22057AA  26170.94640320  .00016007  00000+0  27249-3 0  9995
2 52756  97.6616 329.1404 0005506  67.7587 292.4248 15.51477098226773
